NORAD_CAT_ID,OBJECT_NAME,OBJECT_TYPE,EPOCH,MEAN_MOTION,ECCENTRICITY,INCLINATION,RA_OF_ASC_NODE,ARG_OF_PERICENTER,MEAN_ANOMALY,BSTAR,MEAN_MOTION_DOT,MEAN_MOTION_DDOT,TLE_LINE0,TLE_LINE1,TLE_LINE2,SEMIMAJOR_AXIS,PERIOD,APOGEE,PERIGEE,DECAYED
49729.0,STARLINK-3251,PAYLOAD,2022-09-20 15:46:17,15.08842514,0.0001714,53.2167,82.5744,62.7981,297.3186,0.00014598,2.036e-05,0.0,0 STARLINK-3251,1 49729U 21115F   22263.65714222  .00002036  00000-0  14598-3 0  9996,2 49729  53.2167  82.5744 0001714  62.7981 297.3186 15.08842514 44263,6917.873000000001,95.437,540.923,538.552,0.0
49729.0,STARLINK-3251,PAYLOAD,2022-09-20 23:43:13,15.08834723,0.0001756,53.2167,81.08800000000002,62.5555,297.5615,-5.0547e-06,-3.69e-06,0.0,0 STARLINK-3251,1 49729U 21115F   22263.98834688 -.00000369  00000-0 -50547-5 0  9996,2 49729  53.2167  81.0880 0001756  62.5555 297.5615 15.08834723 45420,6917.897,95.438,540.976,538.547,0.0
49729.0,STARLINK-3251,PAYLOAD,2022-09-21 20:23:13,15.08838607,0.0001802,53.2168,77.2223,63.6421,296.4756,1.0714e-05,-1.18e-06,0.0,0 STARLINK-3251,1 49729U 21115F   22264.84946741 -.00000118  00000-0  10714-4 0  9998,2 49729  53.2168  77.2223 0001802  63.6421 296.4756 15.08838607 44445,6917.885,95.438,540.996,538.503,0.0
49729.0,STARLINK-3251,PAYLOAD,2022-09-22 12:17:05,15.08845363,0.0001748,53.2176,74.2484,65.1858,294.9316,0.00013852,1.917e-05,0.0,0 STARLINK-3251,1 49729U 21115F   22265.51186584  .00001917  00000-0  13852-3 0  9996,2 49729  53.2176  74.2484 0001748  65.1858 294.9316 15.08845363 45656,6917.864000000001,95.437,540.938,538.52,0.0
49729.0,STARLINK-3251,PAYLOAD,2022-09-22 18:38:38,15.08841713,0.0001847,53.2176,73.059,64.0343,296.0839,9.5039e-05,1.225e-05,0.0,0 STARLINK-3251,1 49729U 21115F   22265.77682912  .00001225  00000-0  95039-4 0  9990,2 49729  53.2176  73.0590 0001847  64.0343 296.0839 15.08841713 44587,6917.875,95.437,541.018,538.462,0.0
49729.0,STARLINK-3251,PAYLOAD,2022-09-23 05:46:20,15.08829949,0.0001774,53.2181,70.9776,66.7753,293.3426,9.1308e-05,1.165e-05,0.0,0 STARLINK-3251,1 49729U 21115F   22266.24051921  .00001165  00000-0  91308-4 0  9991,2 49729  53.2181  70.9776 0001774  66.7753 293.3426 15.08829949 45768,6917.911,95.438,541.003,538.549,0.0
49729.0,STARLINK-3251,PAYLOAD,2022-09-23 18:29:25,15.08841085,0.0001785,53.218,68.5988,60.6232,299.4938,0.00012869,1.761e-05,0.0,0 STARLINK-3251,1 49729U 21115F   22266.77043384  .00001761  00000-0  12869-3 0  9999,2 49729  53.2180  68.5988 0001785  60.6232 299.4938 15.08841085 44738,6917.877,95.437,540.977,538.507,0.0
49729.0,STARLINK-3251,PAYLOAD,2022-09-23 23:15:34,15.08843621,0.000181,53.2185,67.707,66.238,293.8802,0.00014752,2.061e-05,0.0,0 STARLINK-3251,1 49729U 21115F   22266.96915191  .00002061  00000-0  14752-3 0  9991,2 49729  53.2185  67.7070 0001810  66.2380 293.8802 15.08843621 44760,6917.869000000002,95.437,540.986,538.482,0.0
49729.0,STARLINK-3251,PAYLOAD,2022-09-24 18:20:11,15.08854424,0.0001918,53.217,64.1386,55.6614,304.456,0.00027321,4.064e-05,0.0,0 STARLINK-3251,1 49729U 21115F   22267.76402551  .00004064  00000-0  27321-3 0  9992,2 49729  53.2170  64.1386 0001918  55.6614 304.4560 15.08854424 45995,6917.8359999999975,95.437,541.028,538.374,0.0
49729.0,STARLINK-3251,PAYLOAD,2022-09-24 23:06:21,15.08850583,0.000281,53.2173,63.2488,41.6336,318.487,0.00017218,2.454e-05,0.0,0 STARLINK-3251,1 49729U 21115F   22267.96274900  .00002454  00000-0  17218-3 0  9994,2 49729  53.2173  63.2488 0002810  41.6336 318.4870 15.08850583 46025,6917.848000000001,95.437,541.6569999999998,537.769,0.0
49729.0,STARLINK-3251,PAYLOAD,2022-09-25 16:35:35,15.08842498,0.0001514,53.2176,59.9745,63.2403,296.8744,9.2501e-05,1.185e-05,0.0,0 STARLINK-3251,1 49729U 21115F   22268.69138869  .00001185  00000-0  92501-4 0  9997,2 49729  53.2176  59.9745 0001514  63.2403 296.8744 15.08842498 46138,6917.873000000001,95.437,540.785,538.69,0.0
49729.0,STARLINK-3251,PAYLOAD,2022-09-26 11:40:13,15.08837259,0.0001476999999999,53.2176,56.40600000000001,64.6897,295.4248,-5.2661e-05,-1.126e-05,0.0,0 STARLINK-3251,1 49729U 21115F   22269.48627132 -.00001126  00000-0 -52661-4 0  9991,2 49729  53.2176  56.4060 0001477  64.6897 295.4248 15.08837259 46256,6917.889,95.438,540.776,538.732,0.0
49729.0,STARLINK-3251,PAYLOAD,2022-09-26 13:15:36,15.0884271,0.0001428,53.2177,56.1084,68.0021,292.1123,-0.00024829,-4.238e-05,0.0,0 STARLINK-3251,1 49729U 21115F   22269.55250904 -.00004238  00000-0 -24829-3 0  9999,2 49729  53.2177  56.1084 0001428  68.0021 292.1123 15.08842710 45155,6917.871999999999,95.437,540.725,538.749,0.0
49729.0,STARLINK-3251,PAYLOAD,2022-09-26 18:01:46,15.08823236,0.0001648,53.2186,55.2174,69.8919,290.2251,0.00012946,1.772e-05,0.0,0 STARLINK-3251,1 49729U 21115F   22269.75123840  .00001772  00000-0  12946-3 0  9994,2 49729  53.2186  55.2174 0001648  69.8919 290.2251 15.08823236 46293,6917.932,95.439,540.937,538.6569999999998,0.0
49729.0,STARLINK-3251,PAYLOAD,2022-09-26 19:37:09,15.08866919,0.0001643,53.2187,54.9203,59.0635,301.0519,-0.00047943,-7.916e-05,0.0,0 STARLINK-3251,1 49729U 21115F   22269.81746849 -.00007916  00000-0 -47943-3 0  9994,2 49729  53.2187  54.9203 0001643  59.0635 301.0519 15.08866919 45195,6917.7980000000025,95.436,540.8,538.5269999999998,0.0
49729.0,STARLINK-3251,PAYLOAD,2022-09-27 05:09:28,15.08838617,0.000143,53.2186,53.1361,57.4338,302.6792,4.4069e-05,4.13e-06,0.0,0 STARLINK-3251,1 49729U 21115F   22270.21491179  .00000413  00000-0  44069-4 0  9993,2 49729  53.2186  53.1361 0001430  57.4338 302.6792 15.08838617 46360,6917.885,95.438,540.739,538.76,0.0
49729.0,STARLINK-3251,PAYLOAD,2022-09-28 11:21:47,15.08847716,0.0001438,53.2186,47.486,56.0262,304.0867,0.00021975,3.212e-05,0.0,0 STARLINK-3251,1 49729U 21115F   22271.47346104  .00003212  00000-0  21975-3 0  9999,2 49729  53.2186  47.4860 0001438  56.0262 304.0867 15.08847716 45446,6917.857,95.437,540.717,538.727,0.0
49729.0,STARLINK-3251,PAYLOAD,2022-09-28 19:18:41,15.08875634,0.0001295,53.2187,45.9993,56.0849,304.0266,-0.0001709,-3.009e-05,0.0,0 STARLINK-3251,1 49729U 21115F   22271.80464863 -.00003009  00000-0 -17090-3 0  9998,2 49729  53.2187  45.9993 0001295  56.0849 304.0266 15.08875634 45497,6917.771,95.435,540.5319999999998,538.741,0.0
49729.0,STARLINK-3251,PAYLOAD,2022-09-29 11:12:35,15.08819709,0.0001551,53.218,43.0253,55.1461,304.9676,-0.00048759,-8.035e-05,0.0,0 STARLINK-3251,1 49729U 21115F   22272.46707437 -.00008035  00000-0 -48759-3 0  9998,2 49729  53.2180  43.0253 0001551  55.1461 304.9676 15.08819709 46703,6917.941999999999,95.439,540.88,538.734,0.0
49729.0,STARLINK-3251,PAYLOAD,2022-09-29 12:47:58,15.08820826,0.0001538,53.218,42.7278,54.4158,305.6977,-0.00044523,-7.363e-05,0.0,0 STARLINK-3251,1 49729U 21115F   22272.53331462 -.00007363  00000-0 -44523-3 0  9995,2 49729  53.2180  42.7278 0001538  54.4158 305.6977 15.08820826 45608,6917.939,95.439,540.868,538.74,0.0
49729.0,STARLINK-3251,PAYLOAD,2022-09-29 20:44:54,15.08822253,0.0001564,53.218,41.2414,54.6404,305.4734,-0.00030308,-5.106e-05,0.0,0 STARLINK-3251,1 49729U 21115F   22272.86451822 -.00005106  00000-0 -30308-3 0  9993,2 49729  53.2180  41.2414 0001564  54.6404 305.4734 15.08822253 45659,6917.935,95.439,540.882,538.7180000000002,0.0
49729.0,STARLINK-3251,PAYLOAD,2022-09-30 03:06:27,15.08823121,0.0001568,53.2181,40.0521,53.2677,306.8459,-6.7647e-05,-1.364e-05,0.0,0 STARLINK-3251,1 49729U 21115F   22273.12948117 -.00001364  00000-0 -67647-4 0  9990,2 49729  53.2181  40.0521 0001568  53.2677 306.8459 15.08823121 46809,6917.932,95.439,540.882,538.712,0.0
49729.0,STARLINK-3251,PAYLOAD,2022-09-30 11:03:23,15.08829446,0.0001629,53.2179,38.5657,54.9945,305.12,0.0011574,0.00018175,0.0,0 STARLINK-3251,1 49729U 21115F   22273.46068894  .00018175  00000-0  11574-2 0  9994,2 49729  53.2179  38.5657 0001629  54.9945 305.1200 15.08829446 45746,6917.913000000001,95.438,540.905,538.651,0.0
49729.0,STARLINK-3251,PAYLOAD,2022-09-30 17:24:56,15.08841866,0.0001638,53.2179,37.3763,54.3015,305.813,0.0013263,0.00020884,0.0,0 STARLINK-3251,1 49729U 21115F   22273.72564967  .00020884  00000-0  13263-2 0  9992,2 49729  53.2179  37.3763 0001638  54.3015 305.8130 15.08841866 46899,6917.875,95.437,540.873,538.607,0.0
49729.0,STARLINK-3251,PAYLOAD,2022-09-30 20:35:42,15.08848128,0.0001659,53.2179,36.7816,53.6923,306.4222,0.0013613,0.00021448,0.0,0 STARLINK-3251,1 49729U 21115F   22273.85812906  .00021448  00000-0  13613-2 0  9991,2 49729  53.2179  36.7816 0001659  53.6923 306.4222 15.08848128 45801,6917.856,95.437,540.868,538.573,0.0
49729.0,STARLINK-3251,PAYLOAD,2022-10-01 12:29:33,15.08846385,0.0001728,53.2177,33.8082,55.5532,304.5623,0.00041546,6.331e-05,0.0,0 STARLINK-3251,1 49729U 21115F   22274.52052725  .00006331  00000-0  41546-3 0  9992,2 49729  53.2177  33.8082 0001728  55.5532 304.5623 15.08846385 45904,6917.861,95.437,540.9209999999998,538.53,0.0
49729.0,STARLINK-3251,PAYLOAD,2022-10-01 18:51:05,15.08856195,0.0001788,53.2176,32.6188,55.4773,304.6387,0.00075237,0.00011712,0.0,0 STARLINK-3251,1 49729U 21115F   22274.78548552  .00011712  00000-0  75237-3 0  9991,2 49729  53.2176  32.6188 0001788  55.4773 304.6387 15.08856195 45941,6917.831,95.437,540.933,538.4590000000002,0.0
49729.0,STARLINK-3251,PAYLOAD,2022-10-02 12:20:20,15.08856555,0.0001761999999999,53.2175,29.3478,55.1015,305.0142,0.00072968,0.00011349,0.0,0 STARLINK-3251,1 49729U 21115F   22275.51412257  .00011349  00000-0  72968-3 0  9999,2 49729  53.2175  29.3478 0001762  55.1015 305.0142 15.08856555 46050,6917.83,95.437,540.914,538.476,0.0
49729.0,STARLINK-3251,PAYLOAD,2022-10-02 18:41:52,15.08851589,0.0001947,53.2175,28.1584,51.6847,308.432,0.0005248,8.077e-05,0.0,0 STARLINK-3251,1 49729U 21115F   22275.77908325  .00008077  00000-0  52480-3 0  9994,2 49729  53.2175  28.1584 0001947  51.6847 308.4320 15.08851589 47209,6917.845,95.437,541.057,538.363,0.0
